ONEWEB-0340             
1 49206U 21083W   24172.92022569  .00000004  00000+0 -22640-4 0  9998
2 49206  87.9148 120.0292 0001969  83.8293 276.3063 13.18685180134257
ONEWEB-0341             
1 49207U 21083X   24172.92813447  .00000018  00000+0  12344-4 0  9996
2 49207  87.9148 120.0416 0001846  60.3011 299.8305 13.18685760134273
ONEWEB-0342             
1 49208U 21083Y   24172.76749352  .00000031  00000+0  45211-4 0  9996
2 49208  87.9203  59.0024 0002076  77.9554 282.1812 13.20772963140892
ONEWEB-0343             
1 49209U 21083Z   24172.92338440 -.00000037  00000+0 -12570-3 0  9996
2 49209  87.9141 120.0493 0002048  64.3698 295.7645 13.18685551134329
ONEWEB-0344             
1 49210U 21083AA  24173.19657795  .00000236  00000+0  61255-3 0  9998
2 49210  87.8937 104.7584 0001573  70.8058 289.3241 13.13470597136899
ONEWEB-0345             
1 49211U 21083AB  24173.21403259 -.00000198  00000+0 -57663-3 0  9993
2 49211  87.8935 104.7299 0001528  70.6899 289.4396 13.13470840136907
ONEWEB-0346             
1 49212U 21083AC  24172.93286981  .00000019  00000+0  16663-4 0  9999
2 49212  87.9148 120.0493 0001785  91.1725 268.9612 13.18685011135559
ONEWEB-0348             
1 49213U 21083AD  24173.21255854 -.00000007  00000+0 -48574-4 0  9992
2 49213  87.9212  58.8863 0001175  84.8486 275.2781 13.20772034142288
